{
  "norad_id": 62600,
  "name": "STARLINK-32747",
  "history": [
    {
      "epoch": "2026-03-28T16:07:11.824896Z",
      "apogee_km": 483.85922139380637,
      "perigee_km": 482.0976986106043,
      "latitude_deg": -3.948565923148826e-05,
      "longitude_deg": 103.166228776944,
      "height_km": 482.8593765858502,
      "semi_major_axis_km": 6861.115460002205,
      "eccentricity": 0.00012837,
      "inclination_deg": 43.0012,
      "raan_deg": 171.0543,
      "arg_perigee_deg": 263.2057,
      "mean_anomaly_deg": 96.8648,
      "mean_motion_rev_day": 15.2760359
    }
  ]
}